CSS (TIANHE)            
1 48274U 21035A   24114.09567735  .00030305  00000+0  30710-3 0  9994
2 48274  41.4685  59.6107 0005475  67.3986 292.7433 15.64567513170475
